ONEWEB-0033             
1 45142U 20008M   24137.38678045 -.00000342  00000+0 -10158-2 0  9991
2 45142  87.8957 187.7407 0002337  95.8828 264.2566 13.10370378208443
ONEWEB-0035             
1 45143U 20008N   24137.57103640  .00000031  00000+0  51861-4 0  9998
2 45143  87.8969 187.6836 0002208  97.3031 262.8347 13.10378459208193
ONEWEB-0036             
1 45144U 20008P   24137.56107193 -.00000402  00000+0 -11885-2 0  9999
2 45144  87.8963 187.6438 0001887  95.2968 264.8374 13.10375517208626
ONEWEB-0039             
1 45146U 20008R   24137.39009858 -.00000498  00000+0 -14626-2 0  9992
2 45146  87.8958 187.6950 0001581  99.7013 260.4293 13.10372610208399
ONEWEB-0040             
1 45147U 20008S   24137.38346217 -.00000154  00000+0 -47820-3 0  9997
2 45147  87.8966 187.6959 0002037  99.2303 260.9055 13.10371223208099
ONEWEB-0043             
1 45149U 20008U   24137.38512452 -.00000267  00000+0 -80084-3 0  9999
2 45149  87.8960 187.7042 0001551 100.2283 259.9019 13.10371241208413
ONEWEB-0044             
1 45150U 20008V   24137.41333970 -.00000172  00000+0 -52917-3 0  9990
2 45150  87.8967 187.6939 0001736  96.5738 263.5587 13.10375793208713
